ORBCOMM FM115           
1 41186U 15081H   25242.17044637  .00001248  00000+0  27736-3 0  9994
2 41186  46.9991  47.6627 0000383 355.8320   4.2564 14.62611504518603
ORBCOMM FM108           
1 41187U 15081J   25242.03257251  .00001260  00000+0  30644-3 0  9994
2 41187  47.0045 118.2076 0002854 294.5836  65.4752 14.58264454517571
ORBCOMM FM117           
1 41188U 15081K   25242.06728904  .00001203  00000+0  29443-3 0  9998
2 41188  47.0008 116.7807 0003407 303.6946  56.3615 14.58260983517621
ORBCOMM FM116           
1 41189U 15081L   25242.18976971  .00000968  00000+0  24362-3 0  9993
2 41189  47.0011 206.0202 0001045 174.1215 185.9683 14.58336155516453
